HAWK-2A                 
1 47505U 21006CW  26068.67946547  .00008113  00000+0  25431-3 0  9990
2 47505  97.2459 115.6184 0006450 187.1463 172.9689 15.33304498284242
STARLINK-34813          
1 66195U 25243U   26068.74921589  .00045285  00000+0  15328-2 0  9994
2 66195  53.1603 244.9251 0001066  75.2464 284.8655 15.30179137 20664
